#Pass ID: 20260118_195744_FENGYUN 3D
#Satellite: FENGYUN 3D
#Configuration: FENGYUN 3D
#almurnet v.1.7.20240730
#Start time: 2026-01-18 19:57:42

#Version: 2.2.20231116
#Station: X_Chapaevo_01
#Location: 129.39018 lon 61.66317 lat
#TLE: 1 43010U 17072A   26017.61121112  .00000213  00000+0  12257-3 0  9991
#TLE: 2 43010  98.9934 349.4672 0002374 103.9362 256.2078 14.19696413423628

#Time	Az	El	Level	Level2	SNR	BER	BlckErr	Temp	State	Recorded	gain1	gain2
#2026-01-18 19:57:42.881000	device inactive

#Closed at: 2026-01-18 19:57:43
#Recorded file [0 MB]: 